{"type": "FeatureCollection", "features": [ {"type": "Feature", "properties": {"norad_id": 34077, "name": "IRIDIUM 33 DEB", "group": "iridium-33-debris", "lat": -28.112719376938344, "lon": 44.53969400923906, "alt_km": 677.5838356566519, "timestamp": "2025-12-24T03:53:30.031916+00:00", "meta": {"OBJECT_NAME": "IRIDIUM 33 DEB", "OBJECT_ID": "1997-051CL", "EPOCH": "2025-12-22T13:17:50.606016", "MEAN_MOTION": 14.64942814, "ECCENTRICITY": 0.0009057, "INCLINATION": 86.3848, "RA_OF_ASC_NODE": 47.1838, "ARG_OF_PERICENTER": 7.656, "MEAN_ANOMALY": 129.0147, "EPHEMERIS_TYPE": 0, "CLASSIFICATION_TYPE": "U", "NORAD_CAT_ID": 34077, "ELEMENT_SET_NO": 999, "REV_AT_EPOCH": 88476, "BSTAR": 0.0013975, "MEAN_MOTION_DOT": 7.504e-05, "MEAN_MOTION_DDOT": 0}, "tle": {"line1": "1 34077U 97051CL  25356.55405794  .00007504  00000+0  13975-2 0  9995", "line2": "2 34077  86.3848  47.1838 0009057   7.6560 129.0147 14.64942814884766"}}, "geometry": {"type": "Point", "coordinates": [44.53969400923906, -28.112719376938344]}}, {"type": "Feature", "properties": {"norad_id": 34079, "name": "IRIDIUM 33 DEB", "group": "iridium-33-debris", "lat": 14.387093901577193, "lon": 4.397205370430322, "alt_km": 616.4096098504197, "timestamp": "2025-12-24T03:53:30.031927+00:00", "meta": {"OBJECT_NAME": "IRIDIUM 33 DEB", "OBJECT_ID": "1997-051CN", "EPOCH": "2025-12-23T18:55:00.035040", "MEAN_MOTION": 14.8380507, "ECCENTRICITY": 0.0004247, "INCLINATION": 86.3777, "RA_OF_ASC_NODE": 3.6362, "ARG_OF_PERICENTER": 327.1417, "MEAN_ANOMALY": 211.0944, "EPHEMERIS_TYPE": 0, "CLASSIFICATION_TYPE": "U", "NORAD_CAT_ID": 34079, "ELEMENT_SET_NO": 999, "REV_AT_EPOCH": 89141, "BSTAR": 0.0018223, "MEAN_MOTION_DOT": 0.00015139, "MEAN_MOTION_DDOT": 0}, "tle": {"line1": "1 34079U 97051CN  25357.78819485  .00015139  00000+0  18223-2 0  9993", "line2": "2 34079  86.3777   3.6362 0004247 327.1417 211.0944 14.83805070891415"}}, "geometry": {"type": "Point", "coordinates": [4.397205370430322, 14.387093901577193]}}, {"type": "Feature", "properties": {"norad_id": 34088, "name": "IRIDIUM 33 DEB", "group": "iridium-33-debris", "lat": 72.33126322594094, "lon": 36.92559386300295, "alt_km": 583.4032069835821, "timestamp": "2025-12-24T03:53:30.031938+00:00", "meta": {"OBJECT_NAME": "IRIDIUM 33 DEB", "OBJECT_ID": "1997-051CX", "EPOCH": "2025-12-23T01:54:32.264640", "MEAN_MOTION": 14.9182131, "ECCENTRICITY": 0.0006827, "INCLINATION": 86.3834, "RA_OF_ASC_NODE": 25.9708, "ARG_OF_PERICENTER": 144.041, "MEAN_ANOMALY": 238.2905, "EPHEMERIS_TYPE": 0, "CLASSIFICATION_TYPE": "U", "NORAD_CAT_ID": 34088, "ELEMENT_SET_NO": 999, "REV_AT_EPOCH": 88896, "BSTAR": 0.0024729077, "MEAN_MOTION_DOT": 0.00025042, "MEAN_MOTION_DDOT": 0}, "tle": {"line1": "1 34088U 97051CX  25357.07954010  .00025042  00000+0  24729-2 0  9991", "line2": "2 34088  86.3834  25.9708 0006827 144.0410 238.2905 14.91821310888963"}}, "geometry": {"type": "Point", "coordinates": [36.92559386300295, 72.33126322594094]}}, {"type": "Feature", "properties": {"norad_id": 34091, "name": "IRIDIUM 33 DEB", "group": "iridium-33-debris", "lat": -52.040625169483306, "lon": -113.69526559446453, "alt_km": 605.6382766728293, "timestamp": "2025-12-24T03:53:30.031948+00:00", "meta": {"OBJECT_NAME": "IRIDIUM 33 DEB", "OBJECT_ID": "1997-051DA", "EPOCH": "2025-12-23T13:53:12.376608", "MEAN_MOTION": 14.82580642, "ECCENTRICITY": 0.0034218, "INCLINATION": 86.3409, "RA_OF_ASC_NODE": 61.8672, "ARG_OF_PERICENTER": 254.4133, "MEAN_ANOMALY": 105.3312, "EPHEMERIS_TYPE": 0, "CLASSIFICATION_TYPE": "U", "NORAD_CAT_ID": 34091, "ELEMENT_SET_NO": 999, "REV_AT_EPOCH": 88027, "BSTAR": 0.0047021, "MEAN_MOTION_DOT": 0.00038393, "MEAN_MOTION_DDOT": 0}, "tle": {"line1": "1 34091U 97051DA  25357.57861547  .00038393  00000+0  47021-2 0  9995", "line2": "2 34091  86.3409  61.8672 0034218 254.4133 105.3312 14.82580642880279"}}, "geometry": {"type": "Point", "coordinates": [-113.69526559446453, -52.040625169483306]}}, {"type": "Feature", "properties": {"norad_id": 34097, "name": "IRIDIUM 33 DEB", "group": "iridium-33-debris", "lat": -25.94539903091442, "lon": -5.487730801743202, "alt_km": 723.6019638061762, "timestamp": "2025-12-24T03:53:30.031959+00:00", "meta": {"OBJECT_NAME": "IRIDIUM 33 DEB", "OBJECT_ID": "1997-051DG", "EPOCH": "2025-12-22T10:10:07.648896", "MEAN_MOTION": 14.34850685, "ECCENTRICITY": 0.00816282, "INCLINATION": 86.1999, "RA_OF_ASC_NODE": 357.1326, "ARG_OF_PERICENTER": 330.4879, "MEAN_ANOMALY": 29.172, "EPHEMERIS_TYPE": 0, "CLASSIFICATION_TYPE": "U", "NORAD_CAT_ID": 34097, "ELEMENT_SET_NO": 999, "REV_AT_EPOCH": 87258, "BSTAR": 0.0014468202, "MEAN_MOTION_DOT": 4.282e-05, "MEAN_MOTION_DDOT": 0}, "tle": {"line1": "1 34097U 97051DG  25356.42369964  .00004282  00000+0  14468-2 0  9999", "line2": "2 34097  86.1999 357.1326 0081628 330.4879  29.1720 14.34850685872588"}}, "geometry": {"type": "Point", "coordinates": [-5.487730801743202, -25.94539903091442]}}, {"type": "Feature", "properties": {"norad_id": 34145, "name": "IRIDIUM 33 DEB", "group": "iridium-33-debris", "lat": -11.990719858864878, "lon": 148.24518040481559, "alt_km": 782.8277609158586, "timestamp": "2025-12-24T03:53:30.031970+00:00", "meta": {"OBJECT_NAME": "IRIDIUM 33 DEB", "OBJECT_ID": "1997-051DY", "EPOCH": "2025-12-23T05:21:52.043328", "MEAN_MOTION": 14.4235986, "ECCENTRICITY": 0.00556029, "INCLINATION": 86.2126, "RA_OF_ASC_NODE": 327.8569, "ARG_OF_PERICENTER": 60.5255, "MEAN_ANOMALY": 300.1476, "EPHEMERIS_TYPE": 0, "CLASSIFICATION_TYPE": "U", "NORAD_CAT_ID": 34145, "ELEMENT_SET_NO": 999, "REV_AT_EPOCH": 87789, "BSTAR": 0.0011656692, "MEAN_MOTION_DOT": 3.943e-05, "MEAN_MOTION_DDOT": 0}, "tle": {"line1": "1 34145U 97051DY  25357.22351902  .00003943  00000+0  11657-2 0  9995", "line2": "2 34145  86.2126 327.8569 0055602  60.5255 300.1476 14.42359860877897"}}, "geometry": {"type": "Point", "coordinates": [148.24518040481559, -11.990719858864878]}}, {"type": "Feature", "properties": {"norad_id": 34146, "name": "IRIDIUM 33 DEB", "group": "iridium-33-debris", "lat": 73.33739707898978, "lon": 152.21221302117772, "alt_km": 716.9636161341832, "timestamp": "2025-12-24T03:53:30.031980+00:00", "meta": {"OBJECT_NAME": "IRIDIUM 33 DEB", "OBJECT_ID": "1997-051DZ", "EPOCH": "2025-12-23T05:55:17.173920", "MEAN_MOTION": 14.49112641, "ECCENTRICITY": 0.00266651, "INCLINATION": 86.2838, "RA_OF_ASC_NODE": 345.1581, "ARG_OF_PERICENTER": 185.2875, "MEAN_ANOMALY": 188.6764, "EPHEMERIS_TYPE": 0, "CLASSIFICATION_TYPE": "U", "NORAD_CAT_ID": 34146, "ELEMENT_SET_NO": 999, "REV_AT_EPOCH": 88259, "BSTAR": 0.00083812732, "MEAN_MOTION_DOT": 3.219e-05, "MEAN_MOTION_DDOT": 0}, "tle": {"line1": "1 34146U 97051DZ  25357.24672655  .00003219  00000+0  83813-3 0  9999", "line2": "2 34146  86.2838 345.1581 0026665 185.2875 188.6764 14.49112641882598"}}, "geometry": {"type": "Point", "coordinates": [152.21221302117772, 73.33739707898978]}}, {"type": "Feature", "properties": {"norad_id": 34159, "name": "IRIDIUM 33 DEB", "group": "iridium-33-debris", "lat": 72.76316559748747, "lon": -148.50406598515946, "alt_km": 770.9539663743944, "timestamp": "2025-12-24T03:53:30.031991+00:00", "meta": {"OBJECT_NAME": "IRIDIUM 33 DEB", "OBJECT_ID": "1997-051EN", "EPOCH": "2025-12-23T04:01:20.911296", "MEAN_MOTION": 14.38517801, "ECCENTRICITY": 0.00261189, "INCLINATION": 86.3495, "RA_OF_ASC_NODE": 43.7945, "ARG_OF_PERICENTER": 250.9907, "MEAN_ANOMALY": 108.8461, "EPHEMERIS_TYPE": 0, "CLASSIFICATION_TYPE": "U", "NORAD_CAT_ID": 34159, "ELEMENT_SET_NO": 999, "REV_AT_EPOCH": 88109, "BSTAR": 0.00035267633, "MEAN_MOTION_DOT": 1.101e-05, "MEAN_MOTION_DDOT": 0}, "tle": {"line1": "1 34159U 97051EN  25357.16760314  .00001101  00000+0  35268-3 0  9993", "line2": "2 34159  86.3495  43.7945 0026118 250.9907 108.8461 14.38517801881093"}}, "geometry": {"type": "Point", "coordinates": [-148.50406598515946, 72.76316559748747]}}, {"type": "Feature", "properties": {"norad_id": 34350, "name": "IRIDIUM 33 DEB", "group": "iridium-33-debris", "lat": 58.37638866723908, "lon": 3.837602081729326, "alt_km": 722.5878860774947, "timestamp": "2025-12-24T03:53:30.032001+00:00", "meta": {"OBJECT_NAME": "IRIDIUM 33 DEB", "OBJECT_ID": "1997-051ES", "EPOCH": "2025-12-23T18:28:41.894976", "MEAN_MOTION": 14.45411309, "ECCENTRICITY": 0.0023483, "INCLINATION": 86.3273, "RA_OF_ASC_NODE": 358.0204, "ARG_OF_PERICENTER": 101.4247, "MEAN_ANOMALY": 77.7519, "EPHEMERIS_TYPE": 0, "CLASSIFICATION_TYPE": "U", "NORAD_CAT_ID": 34350, "ELEMENT_SET_NO": 999, "REV_AT_EPOCH": 88452, "BSTAR": 0.00030295, "MEAN_MOTION_DOT": 1.089e-05, "MEAN_MOTION_DDOT": 0}, "tle": {"line1": "1 34350U 97051ES  25357.76992934  .00001089  00000+0  30295-3 0  9997", "line2": "2 34350  86.3273 358.0204 0023483 101.4247  77.7519 14.45411309884522"}}, "geometry": {"type": "Point", "coordinates": [3.837602081729326, 58.37638866723908]}}, {"type": "Feature", "properties": {"norad_id": 34366, "name": "IRIDIUM 33 DEB", "group": "iridium-33-debris", "lat": 23.63394960273892, "lon": 45.93744871953133, "alt_km": 708.839147655639, "timestamp": "2025-12-24T03:53:30.032012+00:00", "meta": {"OBJECT_NAME": "IRIDIUM 33 DEB", "OBJECT_ID": "1997-051FJ", "EPOCH": "2025-12-22T10:47:10.372704", "MEAN_MOTION": 14.54128755, "ECCENTRICITY": 0.00230356, "INCLINATION": 86.3686, "RA_OF_ASC_NODE": 45.09, "ARG_OF_PERICENTER": 109.4758, "MEAN_ANOMALY": 314.4093, "EPHEMERIS_TYPE": 0, "CLASSIFICATION_TYPE": "U", "NORAD_CAT_ID": 34366, "ELEMENT_SET_NO": 999, "REV_AT_EPOCH": 88323, "BSTAR": 0.000894432, "MEAN_MOTION_DOT": 3.813e-05, "MEAN_MOTION_DDOT": 0}, "tle": {"line1": "1 34366U 97051FJ  25356.44942561  .00003813  00000+0  89443-3 0  9995", "line2": "2 34366  86.3686  45.0900 0023035 109.4758 314.4093 14.54128755883236"}}, "geometry": {"type": "Point", "coordinates": [45.93744871953133, 23.63394960273892]}}]}